<?xml version="1.0" encoding="UTF-8"?>
<ndm xmlns:xsi="http://www.w3.org/2001/XMLSchema-instance" xsi:noNamespaceSchemaLocation="https://sanaregistry.org/r/ndmxml_unqualified/ndmxml-2.0.0-master-2.0.xsd">
<omm id="CCSDS_OMM_VERS" version="2.0">
<header><CREATION_DATE/><ORIGINATOR/></header><body><segment><metadata><OBJECT_NAME>ONEWEB-0342</OBJECT_NAME><OBJECT_ID>2021-083Y</OBJECT_ID><CENTER_NAME>EARTH</CENTER_NAME><REF_FRAME>TEME</REF_FRAME><TIME_SYSTEM>UTC</TIME_SYSTEM><MEAN_ELEMENT_THEORY>SGP4</MEAN_ELEMENT_THEORY></metadata><data><meanElements><EPOCH>2025-08-29T18:18:40.407552</EPOCH><MEAN_MOTION>13.20769421</MEAN_MOTION><ECCENTRICITY>.00017797</ECCENTRICITY><INCLINATION>87.9287</INCLINATION><RA_OF_ASC_NODE>332.5213</RA_OF_ASC_NODE><ARG_OF_PERICENTER>96.7089</ARG_OF_PERICENTER><MEAN_ANOMALY>263.4247</MEAN_ANOMALY></meanElements><tleParameters><EPHEMERIS_TYPE>0</EPHEMERIS_TYPE><CLASSIFICATION_TYPE>U</CLASSIFICATION_TYPE><NORAD_CAT_ID>49208</NORAD_CAT_ID><ELEMENT_SET_NO>999</ELEMENT_SET_NO><REV_AT_EPOCH>19831</REV_AT_EPOCH><BSTAR>-.49685535E-4</BSTAR><MEAN_MOTION_DOT>-.7E-7</MEAN_MOTION_DOT><MEAN_MOTION_DDOT>0</MEAN_MOTION_DDOT></tleParameters></data></segment></body></omm>
<omm id="CCSDS_OMM_VERS" version="2.0">
<header><CREATION_DATE/><ORIGINATOR/></header><body><segment><metadata><OBJECT_NAME>ONEWEB-0343</OBJECT_NAME><OBJECT_ID>2021-083Z</OBJECT_ID><CENTER_NAME>EARTH</CENTER_NAME><REF_FRAME>TEME</REF_FRAME><TIME_SYSTEM>UTC</TIME_SYSTEM><MEAN_ELEMENT_THEORY>SGP4</MEAN_ELEMENT_THEORY></metadata><data><meanElements><EPOCH>2025-08-29T22:08:31.905600</EPOCH><MEAN_MOTION>13.18685053</MEAN_MOTION><ECCENTRICITY>.0001278</ECCENTRICITY><INCLINATION>87.9165</INCLINATION><RA_OF_ASC_NODE>33.2887</RA_OF_ASC_NODE><ARG_OF_PERICENTER>107.9208</ARG_OF_PERICENTER><MEAN_ANOMALY>252.2063</MEAN_ANOMALY></meanElements><tleParameters><EPHEMERIS_TYPE>0</EPHEMERIS_TYPE><CLASSIFICATION_TYPE>U</CLASSIFICATION_TYPE><NORAD_CAT_ID>49209</NORAD_CAT_ID><ELEMENT_SET_NO>999</ELEMENT_SET_NO><REV_AT_EPOCH>19165</REV_AT_EPOCH><BSTAR>-.39431433E-4</BSTAR><MEAN_MOTION_DOT>-.3E-7</MEAN_MOTION_DOT><MEAN_MOTION_DDOT>0</MEAN_MOTION_DDOT></tleParameters></data></segment></body></omm>
<omm id="CCSDS_OMM_VERS" version="2.0">
<header><CREATION_DATE/><ORIGINATOR/></header><body><segment><metadata><OBJECT_NAME>ONEWEB-0344</OBJECT_NAME><OBJECT_ID>2021-083AA</OBJECT_ID><CENTER_NAME>EARTH</CENTER_NAME><REF_FRAME>TEME</REF_FRAME><TIME_SYSTEM>UTC</TIME_SYSTEM><MEAN_ELEMENT_THEORY>SGP4</MEAN_ELEMENT_THEORY></metadata><data><meanElements><EPOCH>2025-08-29T21:25:47.022240</EPOCH><MEAN_MOTION>13.13469213</MEAN_MOTION><ECCENTRICITY>.00016976</ECCENTRICITY><INCLINATION>87.9005</INCLINATION><RA_OF_ASC_NODE>18.1414</RA_OF_ASC_NODE><ARG_OF_PERICENTER>112.2593</ARG_OF_PERICENTER><MEAN_ANOMALY>247.8717</MEAN_ANOMALY></meanElements><tleParameters><EPHEMERIS_TYPE>0</EPHEMERIS_TYPE><CLASSIFICATION_TYPE>U</CLASSIFICATION_TYPE><NORAD_CAT_ID>49210</NORAD_CAT_ID><ELEMENT_SET_NO>999</ELEMENT_SET_NO><REV_AT_EPOCH>19265</REV_AT_EPOCH><BSTAR>.22541698E-3</BSTAR><MEAN_MOTION_DOT>.95E-6</MEAN_MOTION_DOT><MEAN_MOTION_DDOT>0</MEAN_MOTION_DDOT></tleParameters></data></segment></body></omm>
<omm id="CCSDS_OMM_VERS" version="2.0">
<header><CREATION_DATE/><ORIGINATOR/></header><body><segment><metadata><OBJECT_NAME>ONEWEB-0345</OBJECT_NAME><OBJECT_ID>2021-083AB</OBJECT_ID><CENTER_NAME>EARTH</CENTER_NAME><REF_FRAME>TEME</REF_FRAME><TIME_SYSTEM>UTC</TIME_SYSTEM><MEAN_ELEMENT_THEORY>SGP4</MEAN_ELEMENT_THEORY></metadata><data><meanElements><EPOCH>2025-08-29T21:13:36.670080</EPOCH><MEAN_MOTION>13.13470281</MEAN_MOTION><ECCENTRICITY>.00017053</ECCENTRICITY><INCLINATION>87.9010</INCLINATION><RA_OF_ASC_NODE>18.0956</RA_OF_ASC_NODE><ARG_OF_PERICENTER>114.1628</ARG_OF_PERICENTER><MEAN_ANOMALY>245.9679</MEAN_ANOMALY></meanElements><tleParameters><EPHEMERIS_TYPE>0</EPHEMERIS_TYPE><CLASSIFICATION_TYPE>U</CLASSIFICATION_TYPE><NORAD_CAT_ID>49211</NORAD_CAT_ID><ELEMENT_SET_NO>999</ELEMENT_SET_NO><REV_AT_EPOCH>19266</REV_AT_EPOCH><BSTAR>-.38124054E-3</BSTAR><MEAN_MOTION_DOT>-.126E-5</MEAN_MOTION_DOT><MEAN_MOTION_DDOT>0</MEAN_MOTION_DDOT></tleParameters></data></segment></body></omm>
<omm id="CCSDS_OMM_VERS" version="2.0">
<header><CREATION_DATE/><ORIGINATOR/></header><body><segment><metadata><OBJECT_NAME>ONEWEB-0346</OBJECT_NAME><OBJECT_ID>2021-083AC</OBJECT_ID><CENTER_NAME>EARTH</CENTER_NAME><REF_FRAME>TEME</REF_FRAME><TIME_SYSTEM>UTC</TIME_SYSTEM><MEAN_ELEMENT_THEORY>SGP4</MEAN_ELEMENT_THEORY></metadata><data><meanElements><EPOCH>2025-08-29T22:21:36.045216</EPOCH><MEAN_MOTION>13.18684545</MEAN_MOTION><ECCENTRICITY>.00023825</ECCENTRICITY><INCLINATION>87.9167</INCLINATION><RA_OF_ASC_NODE>33.3094</RA_OF_ASC_NODE><ARG_OF_PERICENTER>96.6388</ARG_OF_PERICENTER><MEAN_ANOMALY>263.5016</MEAN_ANOMALY></meanElements><tleParameters><EPHEMERIS_TYPE>0</EPHEMERIS_TYPE><CLASSIFICATION_TYPE>U</CLASSIFICATION_TYPE><NORAD_CAT_ID>49212</NORAD_CAT_ID><ELEMENT_SET_NO>999</ELEMENT_SET_NO><REV_AT_EPOCH>19159</REV_AT_EPOCH><BSTAR>-.86801696E-4</BSTAR><MEAN_MOTION_DOT>-.21E-6</MEAN_MOTION_DOT><MEAN_MOTION_DDOT>0</MEAN_MOTION_DDOT></tleParameters></data></segment></body></omm>
<omm id="CCSDS_OMM_VERS" version="2.0">
<header><CREATION_DATE/><ORIGINATOR/></header><body><segment><metadata><OBJECT_NAME>ONEWEB-0348</OBJECT_NAME><OBJECT_ID>2021-083AD</OBJECT_ID><CENTER_NAME>EARTH</CENTER_NAME><REF_FRAME>TEME</REF_FRAME><TIME_SYSTEM>UTC</TIME_SYSTEM><MEAN_ELEMENT_THEORY>SGP4</MEAN_ELEMENT_THEORY></metadata><data><meanElements><EPOCH>2025-08-29T18:05:03.065280</EPOCH><MEAN_MOTION>13.20770522</MEAN_MOTION><ECCENTRICITY>.00022653</ECCENTRICITY><INCLINATION>87.9287</INCLINATION><RA_OF_ASC_NODE>332.5352</RA_OF_ASC_NODE><ARG_OF_PERICENTER>113.2154</ARG_OF_PERICENTER><MEAN_ANOMALY>246.9219</MEAN_ANOMALY></meanElements><tleParameters><EPHEMERIS_TYPE>0</EPHEMERIS_TYPE><CLASSIFICATION_TYPE>U</CLASSIFICATION_TYPE><NORAD_CAT_ID>49213</NORAD_CAT_ID><ELEMENT_SET_NO>999</ELEMENT_SET_NO><REV_AT_EPOCH>19834</REV_AT_EPOCH><BSTAR>-.17637138E-3</BSTAR><MEAN_MOTION_DOT>-.59E-6</MEAN_MOTION_DOT><MEAN_MOTION_DDOT>0</MEAN_MOTION_DDOT></tleParameters></data></segment></body></omm>
<omm id="CCSDS_OMM_VERS" version="2.0">
<header><CREATION_DATE/><ORIGINATOR/></header><body><segment><metadata><OBJECT_NAME>ONEWEB-0350</OBJECT_NAME><OBJECT_ID>2021-083AE</OBJECT_ID><CENTER_NAME>EARTH</CENTER_NAME><REF_FRAME>TEME</REF_FRAME><TIME_SYSTEM>UTC</TIME_SYSTEM><MEAN_ELEMENT_THEORY>SGP4</MEAN_ELEMENT_THEORY></metadata><data><meanElements><EPOCH>2025-08-29T21:27:00.475200</EPOCH><MEAN_MOTION>13.13470960</MEAN_MOTION><ECCENTRICITY>.00017327</ECCENTRICITY><INCLINATION>87.9016</INCLINATION><RA_OF_ASC_NODE>18.0857</RA_OF_ASC_NODE><ARG_OF_PERICENTER>108.7234</ARG_OF_PERICENTER><MEAN_ANOMALY>251.4083</MEAN_ANOMALY></meanElements><tleParameters><EPHEMERIS_TYPE>0</EPHEMERIS_TYPE><CLASSIFICATION_TYPE>U</CLASSIFICATION_TYPE><NORAD_CAT_ID>49214</NORAD_CAT_ID><ELEMENT_SET_NO>999</ELEMENT_SET_NO><REV_AT_EPOCH>19269</REV_AT_EPOCH><BSTAR>.25020852E-3</BSTAR><MEAN_MOTION_DOT>.104E-5</MEAN_MOTION_DOT><MEAN_MOTION_DDOT>0</MEAN_MOTION_DDOT></tleParameters></data></segment></body></omm>
<omm id="CCSDS_OMM_VERS" version="2.0">
<header><CREATION_DATE/><ORIGINATOR/></header><body><segment><metadata><OBJECT_NAME>ONEWEB-0351</OBJECT_NAME><OBJECT_ID>2021-083AF</OBJECT_ID><CENTER_NAME>EARTH</CENTER_NAME><REF_FRAME>TEME</REF_FRAME><TIME_SYSTEM>UTC</TIME_SYSTEM><MEAN_ELEMENT_THEORY>SGP4</MEAN_ELEMENT_THEORY></metadata><data><meanElements><EPOCH>2025-08-29T17:55:45.846624</EPOCH><MEAN_MOTION>13.20770757</MEAN_MOTION><ECCENTRICITY>.00010025</ECCENTRICITY><INCLINATION>87.9301</INCLINATION><RA_OF_ASC_NODE>332.5215</RA_OF_ASC_NODE><ARG_OF_PERICENTER>94.6177</ARG_OF_PERICENTER><MEAN_ANOMALY>265.5071</MEAN_ANOMALY></meanElements><tleParameters><EPHEMERIS_TYPE>0</EPHEMERIS_TYPE><CLASSIFICATION_TYPE>U</CLASSIFICATION_TYPE><NORAD_CAT_ID>49215</NORAD_CAT_ID><ELEMENT_SET_NO>999</ELEMENT_SET_NO><REV_AT_EPOCH>19830</REV_AT_EPOCH><BSTAR>-.1496074E-3</BSTAR><MEAN_MOTION_DOT>-.48E-6</MEAN_MOTION_DOT><MEAN_MOTION_DDOT>0</MEAN_MOTION_DDOT></tleParameters></data></segment></body></omm>
<omm id="CCSDS_OMM_VERS" version="2.0">
<header><CREATION_DATE/><ORIGINATOR/></header><body><segment><metadata><OBJECT_NAME>ONEWEB-0352</OBJECT_NAME><OBJECT_ID>2021-083AG</OBJECT_ID><CENTER_NAME>EARTH</CENTER_NAME><REF_FRAME>TEME</REF_FRAME><TIME_SYSTEM>UTC</TIME_SYSTEM><MEAN_ELEMENT_THEORY>SGP4</MEAN_ELEMENT_THEORY></metadata><data><meanElements><EPOCH>2025-08-29T20:58:57.915552</EPOCH><MEAN_MOTION>13.13469423</MEAN_MOTION><ECCENTRICITY>.00012962</ECCENTRICITY><INCLINATION>87.8999</INCLINATION><RA_OF_ASC_NODE>18.1276</RA_OF_ASC_NODE><ARG_OF_PERICENTER>94.2224</ARG_OF_PERICENTER><MEAN_ANOMALY>265.9053</MEAN_ANOMALY></meanElements><tleParameters><EPHEMERIS_TYPE>0</EPHEMERIS_TYPE><CLASSIFICATION_TYPE>U</CLASSIFICATION_TYPE><NORAD_CAT_ID>49216</NORAD_CAT_ID><ELEMENT_SET_NO>999</ELEMENT_SET_NO><REV_AT_EPOCH>19278</REV_AT_EPOCH><BSTAR>-.84642033E-3</BSTAR><MEAN_MOTION_DOT>-.296E-5</MEAN_MOTION_DOT><MEAN_MOTION_DDOT>0</MEAN_MOTION_DDOT></tleParameters></data></segment></body></omm>

</ndm>
